0 DELTA 1 DEB
1 21272U 75052H   13282.48302050  .00000096  00000-0  39813-3 0  8048
2 21272 099.8173 113.7297 0309197 180.3864 210.1038 12.92512795991133
0 DELTA 1 DEB
1 21272U 75052H   13283.48896065  .00000230  00000-0  79610-3 0  8053
2 21272 099.8171 114.6270 0309191 178.1350 210.7989 12.92511794991264
0 DELTA 1 DEB
1 21272U 75052H   13286.14444103  .00000300  00000-0  10040-2 0  8061
2 21272 099.8169 116.9954 0309226 172.1939 326.8719 12.92512733991603
0 DELTA 1 DEB
1 21272U 75052H   13288.00564684  .00000085  00000-0  36418-3 0  8074
2 21272 099.8166 118.6556 0309235 168.0245 347.1477 12.92515743991848
0 DELTA 1 DEB
1 21272U 75052H   13289.76671565 -.00000167  00000-0 -38819-3 0  8086
2 21272 099.8166 120.2263 0309258 164.0821 261.4927 12.92518157992079
0 DELTA 1 DEB
1 21272U 75052H   13291.09537792 -.00000239  00000-0 -60397-3 0  8095
2 21272 099.8167 121.4113 0309302 161.1131 323.8367 12.92518818992243
0 DELTA 1 DEB
1 21272U 75052H   13292.46539845 -.00000166  00000-0 -38523-3 0  8105
2 21272 099.8166 122.6333 0309426 158.0676 218.6163 12.92517772992428
0 DELTA 1 DEB
1 21272U 75052H   13294.03851127  .00000044  00000-0  24004-3 0  8113
2 21272 099.8166 124.0363 0309472 154.5535 338.4128 12.92515703992629
0 DELTA 1 DEB
1 21272U 75052H   13295.04355213  .00000203  00000-0  71263-3 0  8127
2 21272 099.8166 124.9326 0309446 152.2998 334.9393 12.92514536992758
0 DELTA 1 DEB
1 21272U 75052H   13296.19764997  .00000331  00000-0  10941-2 0  8135
2 21272 099.8166 125.9618 0309440 149.7158 305.0285 12.92513993992908
